#dP2023  3 30  0  0  0.00000000      96 __u+U ITR00 EXT  IAC
## 2255 345600.00000000   900.00000000 60033 0.0000000000000
+  119   C06C07C08C09C10C11C12C13C14C16C19C20C21C22C23C24C25
+        C26C27C28C29C30C32C33C34C35C36C37C38C39C40C41C42C43
+        C44C45C46E01E02E03E04E05E07E08E09E10E11E12E13E14E15
+        E18E19E21E25E26E27E30E31E33E34E36G01G02G03G04G05G06
+        G07G08G09G10G11G12G13G14G15G16G17G18G19G20G21G22G23
+        G24G25G26G27G28G29G30G31G32J02J03J04R01R02R03R04R05
+        R07R08R09R11R12R13R14R15R16R17R18R19R20R21R22R24R25
++        11  7 11 11  9  8  8 11  9 11  8  7  9  8  9  7  8
++         9  9  8  8  7  9  8  9  9  8  8 11 11  8  8  7  6
++         9  7  7  8  7  7  7  7  8  7  7  7  7  7  7  7  7
++         8  8  7  6  7  9  6  7  8  7  8  7  8  8  7  6  7
++         9  7  8  6  8  7  6  8  6  7  7  7  7  6  8  6  7
++         7  7  7  8 11  7  7  8  6  8  8  8  9  8  6  9  6
++         8  8 10  8  7  7  7  8  9  8  7  8  9  6  8  8  8
%c M  cc GPS ccc cccc cccc cccc cccc ccccc ccccc ccccc ccccc
%c cc cc ccc ccc cccc cccc cccc cccc ccccc ccccc ccccc ccccc
%f  0.0000000  0.000000000  0.00000000000  0.000000000000000
%f  0.0000000  0.000000000  0.00000000000  0.000000000000000
%i    0    0    0    0      0      0      0      0         0
%i    0    0    0    0      0      0      0      0         0
/* IAC                                ULTRA-RAPID PREDICTION
/* S/V CLOCKS ARE ALIGNED TO GNSS TIME                      
/* G:C1WC2W R:C1PC2P E:C1XC5X C:C2IC6I J:C1CC2S             
/* PCV:IGS20_2247 OL/AL:FES2004  NONE     YN ORB:CoN CLK:CoN
*  2023 03 30 10 15  0.00000000
PC06  -9828.641834  22901.834954 -34006.175894   -197.099784
PC07 -16870.613404  37475.527390   9035.786516    -95.648360
PC08   -290.920382  35932.724908  22203.227736    512.510513
PC09    577.166493  24894.816248 -33555.707528    824.311641
PC10  -9834.099530  37689.853168  15777.037197    -21.111319
PC11  12142.534243  14299.323016  20728.657246    734.346259
PC12  -8912.595713  14376.523368  22229.260523    538.899225
PC13   4148.031868  38688.941049  16718.271692    241.301147
PC14   3799.314710  19622.515203 -19426.567333     57.264938
PC16 -12712.668901  21395.885058 -33846.007786    124.194937
PC19 -11120.284400 -11695.057621  22800.463799   -898.089046
PC20   2851.056449 -23796.650073  14342.475831    652.986505
PC21 -16252.198519  22395.998148   3518.057643   -908.976054
PC22 -19388.542767   7733.016563  18512.069291   -560.658047
PC23  18904.024787   4287.938960  20074.862084   -896.383328
PC24   4950.312740  25218.193921 -10922.073482   -232.480430
PC25  17949.909756  20023.756323   7484.309349     96.933692
PC26  -8497.753574  15864.293852 -21351.780040    -99.124332
PC27  17599.422089 -12016.475851 -18029.644633    118.131386
PC28  27588.093924  -1823.738008  -3776.722315     86.771175
PC29 -21828.049609  -9804.243898 -14372.072194    100.356894
PC30  -2305.216799 -15899.738903 -22827.685193      0.647384
PC32  16085.499748 -22537.609994  -3522.068579   -588.873193
PC33  11159.735939  11682.705819 -22740.609661   -871.588438
PC34   3733.215069  15835.711647  22656.337210    137.810196
PC35 -27702.018642   2178.354379   2808.147105    655.285275
PC36 -17197.168822 -20880.218172  -6825.575199   -532.374504
PC37   9845.098906 -14460.326923  21745.557493   -795.589034
PC38  -6970.334116  31279.560594  27507.209584     68.390498
PC39 -18689.678123  19942.474637 -32122.917965     -2.365942
PC40 -23774.450845  33789.416699   7757.794457    -18.951745
PC41  19271.468567  -7210.201159 -18797.408466   -786.903823
PC42  -3877.298078  24228.996392 -13217.185331   -761.571754
PC43  21169.897274  10343.089901  14921.691363     14.245173
PC44 -17385.241909  12660.367718  17787.371254     60.228933
PC45 -18690.962421  -3857.569967 -20356.615158    -78.667246
PC46  -6264.584962 -25450.289621   9519.834158    -43.444976
PE01   2878.235038  28794.456637   6239.417814     -9.985780
PE02  -3206.797581 -28643.837220  -6706.892397     29.363010
PE03  -2405.826422 -17549.357814  23719.622806   -664.219118
PE04  20743.193577   5356.172557 -20414.259416    -89.551133
PE05  17785.792547 -19692.303445  13127.219375    -81.585032
PE07 -27315.328229  10149.719904   5182.739449    -33.759904
PE08 -20527.444244  -5401.951648  20631.457779    -59.309551
PE09  27301.733083 -10123.755634  -5352.964752   -887.068144
PE10  26375.202071   8964.409865 -10008.587240   -522.799608
PE11  23049.692373    379.173578 -18563.223293   1430.930340
PE12  25234.564645  15428.845961   -719.144472   -478.556660
PE13 -23468.102124  -1107.919600  18017.862365    -18.130370
PE14 -22364.681259  -4670.727759 -14897.983828    182.843191
PE15 -25172.446571 -15584.030966    374.009159    -11.013487
PE18  28941.526073  -8770.353545   2185.962999   -224.145007
PE19   -607.648327  18419.624912 -23151.691222  -2886.081597
PE21  -8704.696878  26094.972573 -10943.354402   -520.461133
PE25   8887.609613 -25903.570772  11222.812692   -602.316772
PE26  -7350.957539  14459.202312  24763.416908     60.438594
PE27 -16336.149562   8339.204801 -23239.274755    -12.709133
PE30 -14057.019115 -14813.821966 -21437.058295    -52.130332
PE31  14270.250020  14163.436956  21725.943330   -519.936309
PE33  11982.878396  20750.116766  17371.010602   -447.677951
PE34 -12179.586700 -20744.645919 -17253.812149    -37.575876
PE36   8024.868154 -13852.616054 -24895.031012    -33.827567
PG01 -22270.890324 -14612.205028   2186.722486    197.859031
PG02  23709.929780  10474.780674  -4539.009310   -610.449552
PG03 -12814.455482 -10896.456293  20461.222980   -340.149799
PG04 -21213.800716  -3058.888434  15769.700635      4.787238
PG05   5936.370457  23786.361173 -10234.353631   -121.450273
PG06  -7035.292058  12908.785302  22179.893679    584.578019
PG07 -22261.986579  -3674.265951 -13946.206250    212.419024
PG08 -11364.405306 -11130.962774 -21388.420901   -115.362361
PG09 -24790.430317   6562.743617   6930.564645   -190.412615
PG10  11133.556253 -19479.655591 -13790.196775    -30.685369
PG11   6752.140804  19801.462296  16393.502188   -146.150967
PG12  11260.353723  13932.536609  19357.782141   -357.758587
PG13   2856.802244  14880.053665 -21980.989306    498.245791
PG14 -13366.133266  16794.093049 -15548.147272     10.243961
PG15  13139.334048  10267.286323 -21167.868809     26.109439
PG16  -1234.441781 -25041.750175  -8326.685831   -512.282307
PG17 -21749.229176  13693.328376   7339.820565    708.117190
PG18  20124.596227    160.205094 -17406.794800   -201.938767
PG19 -14934.080544  15692.787211  14941.653791    296.886695
PG20   1535.663858  26622.518169    555.510756    441.925499
PG21 -20416.673895 -16563.622533  -5596.282120    154.318960
PG22  11136.036400 -16965.331184  17491.585389    454.882227
PG23  14616.921495  -7986.850686 -20647.464623     13.592807
PG24  21914.004545  15221.393287  -2747.743730   -132.082906
PG25  15090.626440   2192.685802  21438.685334    431.725782
PG26   4783.307179 -25325.290589   5508.668984    241.948931
PG27    687.246282 -16309.599140 -21110.958940     69.883365
PG28   8757.478072 -12401.118118  21765.200232     55.250161
PG29  24491.744583  -1701.678277  10185.170836   -593.256287
PG30 -14886.311164   7851.360996 -20494.936651   -524.724252
PG31   3032.248150 -16022.074538  20714.621648   -212.813422
PG32  19077.207088 -16000.730607   9130.524792   -437.808814
PJ02 -21957.807591  30258.662517 -14954.667114     -1.350619
PJ03 -29152.303728  22338.141001  25782.726413      1.550668
PJ04 -31608.867461  27513.204743  11386.101568     94.149208
PR01  -4768.248321 -11067.449298  22491.518551     25.727897
PR02 -16490.935614   5109.331649  18854.002846    -23.037765
PR03 -18114.693566  17525.339193   4161.282702     75.117190
PR04  -9915.360001  19841.752477 -12570.980938    181.367611
PR05   3708.975134  11502.825280 -22448.683005    110.153245
PR07  17862.595220 -17883.583046  -3197.500380     52.788122
PR08   9523.159569 -19896.124263  12850.786220    -70.140434
PR09  13388.775709   7007.608916  20541.447460    111.961008
PR11  -2120.403360 -22614.008876  11631.498353    -27.013294
PR12 -11120.053258 -21776.198707  -7217.668064     26.057697
PR13 -13315.322799  -9127.282829 -19767.632436    -33.442160
PR14  -7375.481627  10978.815663 -21801.041130     24.487869
PR15   2528.057091  23088.374380 -10528.307800     90.126586
PR16  11155.461994  21847.526987   6940.362437     12.962909
PR17 -18006.817726   4373.348534  17520.016406    616.747027
PR18  -1807.426251  10303.626069  23276.314829     74.019052
PR19  13937.727810  11651.305576  17902.650453   -227.197121
PR20  24799.046886   5785.444828   -934.214673    -90.232279
PR21  16704.576110  -4978.233935 -18633.372512   -384.186994
PR22   1210.177747 -10868.784433 -23020.328147     77.109483
PR24 -25030.373125  -4632.325966   1603.524744    157.871362
PR25  18462.361363  -3613.283387 -17230.121636     59.163886
EOF
